80P/Peters-Hartley,e,29.9440,259.8221,339.2540,4.024222,0.1220903,0.59911828,250.1785,06/22.0/2020,2000,g  9.0,4.0
# From MPC105241
81P/Wild,e,3.2369,136.1040,41.7169,3.450346,0.1537836,0.53719072,220.5416,06/22.0/2020,2000,g  7.0,6.0
# From MPEC 2020-L06
82P/Gehrels,e,1.1283,239.3139,226.8879,4.137067,0.1171292,0.12175665,85.0998,06/22.0/2020,2000,g  5.0,8.0
# From MPC105241
84P/Giclas,e,7.5523,108.1746,281.5623,3.547460,0.1475121,0.51547201,2.6829,06/22.0/2020,2000,g  9.5,8.0
# From MPC109147
86P/Wild,e,15.4751,72.3744,179.3219,3.603937,0.1440583,0.37263630,274.2380,06/22.0/2020,2000,g 11.0,6.0
# From MPC105241
87P/Bus,e,2.6023,181.8618,24.9339,3.437710,0.1546323,0.38917345,6.7636,06/22.0/2020,2000,g  7.2,10.0
# From MPEC 2019-JE2
88P/Howell,e,4.3838,56.6855,235.9167,3.105619,0.1800868,0.56431531,342.5990,06/22.0/2020,2000,g 11.0,6.0
# From MPC100283
89P/Russell,e,12.0707,41.4132,250.2712,3.753871,0.1355143,0.40871111,174.0373,06/22.0/2020,2000,g 11.5,6.0
# From MPC107051
90P/Gehrels,e,9.6410,13.2139,29.1109,6.055270,0.0661460,0.50961036,72.7056,06/22.0/2020,2000,g  8.5,6.0
# From MPC105241
91P/Russell,e,14.0917,247.8280,354.7898,3.890242,0.1284515,0.33057151,341.9727,06/22.0/2020,2000,g  7.5,6.0
# From MPEC 2014-J58
92P/Sanguin,e,19.4788,181.3876,163.7139,5.345507,0.0797482,0.66048863,154.5714,06/22.0/2020,2000,g 12.0,6.0
# From NK 2707
93P/Lovas,e,12.2017,339.6296,74.8610,4.384597,0.1073518,0.61208524,129.8164,06/22.0/2020,2000,g  9.0,4.0
# From MPEC 2013-O31
94P/Russell,e,6.1879,70.8594,92.5104,3.507072,0.1500677,0.36469904,200.3237,06/22.0/2020,2000,g  9.0,4.0
# From MPC 75717
95P/Chiron,e,6.9390,209.2447,339.8073,13.68683,0.0194648,0.37866924,173.2682,06/22.0/2020,2000,g  6.5,2.0
# From MPEC 2017-T14
96P/Machholz,e,58.1493,94.1945,14.6555,3.027430,0.1871082,0.96150399,181.4128,06/22.0/2020,2000,g  9.0,4.0
# From MPC 77020
97P/Metcalf-Brewington,e,17.8857,184.2986,229.3491,4.783843,0.0941974,0.46146430,303.2797,06/22.0/2020,2000,g  5.5,6.0
# From MPEC 2013-H38
98P/Takamizawa,e,10.5614,114.7118,157.9176,3.798728,0.1331211,0.56219941,333.7848,06/22.0/2020,2000,g  9.0,8.0
# From MPEC 2020-L06
99P/Kowal,e,4.3380,28.1233,174.9263,6.113662,0.0652007,0.23033364,316.9948,06/22.0/2020,2000,g  4.5,6.0
# From MPEC 2013-O31
100P/Hartley,e,25.5722,37.7169,182.0046,3.431567,0.1550477,0.41263524,239.0906,06/22.0/2020,2000,g  9.0,4.0
# From MPC115887
101P/Chernykh,e,5.0529,116.2308,277.6935,5.798643,0.0705853,0.59561781,11.3983,06/22.0/2020,2000,g 12.0,4.8
# From MPC 86232
102P/Shoemaker,e,25.8767,339.3764,20.5277,3.816233,0.1322062,0.45764176,331.6601,06/22.0/2020,2000,g  6.5,8.0
# From MPEC 2018-HA5
103P/Hartley,e,13.5932,219.7274,181.2957,3.476681,0.1520397,0.69289274,176.2673,06/22.0/2020,2000,g  8.5,8.0
# From MPC100283
104P/Kowal,e,5.7404,208.5824,226.0919,3.205890,0.1717043,0.66858056,262.7112,06/22.0/2020,2000,g 16.0,4.0
# From MPC109147
105P/Singer Brewster,e,9.1734,192.4196,46.4667,3.466415,0.1527155,0.40992267,104.1380,06/22.0/2020,2000,g 11.5,6.0
# From MPC 92276
106P/Schuster,e,19.5589,49.0162,353.5719,3.764923,0.1349180,0.59442589,302.9838,06/22.0/2020,2000,g 14.0,4.8
# From MPEC 2015-M77
107P/Wilson-Harrington,e,2.7983,266.8168,95.3707,2.625864,0.2316305,0.63121821,176.1140,06/22.0/2020,2000,g  9.0,4.0
# From MPC 89313
108P/Ciffreo,e,11.4585,50.5054,354.2269,3.743462,0.1360799,0.55721886,299.4862,06/22.0/2020,2000,g  8.0,12.0
# From  105, 420
109P/Swift-Tuttle,e,113.9313,139.0834,152.8768,26.10938,0.0073877,0.96315383,74.3717,06/22.0/2020,2000,g  4.0,6.0
# From MPC 92276
110P/Hartley,e,11.7073,287.5333,167.4380,3.600781,0.1442477,0.31782392,290.2756,06/22.0/2020,2000,g  1.0,12.0
# From MPC 75718
111P/Helin-Roman-Crockett,e,4.2275,89.7636,1.1592,4.144538,0.1168127,0.10548792,317.9699,06/22.0/2020,2000,g  5.0,8.0
# From MPC118097
112P/Urata-Niijima,e,24.1905,31.8474,21.4983,3.526166,0.1488504,0.58975916,20.1004,06/22.0/2020,2000,g 14.0,6.0
# From MPEC 2015-E14
113P/Spitaler,e,5.2871,306.7866,115.5186,3.698986,0.1385416,0.42819017,262.4129,06/22.0/2020,2000,g 13.5,4.0
# From MPEC 2019-TG9
114P/Wiseman-Skiff,e,18.2723,271.0596,172.8035,3.546947,0.1475442,0.55473772,23.5969,06/22.0/2020,2000,g 11.5,6.0
# From MPC105241
115P/Maury,e,11.6740,176.0214,121.0162,4.276730,0.1114388,0.51904682,355.7919,06/22.0/2020,2000,g 10.5,6.0
# From MPC106348
116P/Wild,e,3.6041,20.9968,173.3915,3.488380,0.1512754,0.37091164,245.7865,06/22.0/2020,2000,g  2.5,10.0
# From MPEC 2015-S97
117P/Helin-Roman-Alu,e,8.7013,58.8565,222.7179,4.087039,0.1192864,0.25577422,271.1657,06/22.0/2020,2000,g  9.0,4.0
# From MPC 95735
118P/Shoemaker-Levy,e,9.4369,143.6635,311.0605,3.401729,0.1570921,0.45627593,222.8378,06/22.0/2020,2000,g 12.0,4.0
# From MPC 84628
119P/Parker-Hartley,e,7.5242,104.9368,321.3055,3.826389,0.1316802,0.40201620,258.7078,06/22.0/2020,2000,g  3.5,8.0
# From MPC 80901
120P/Mueller,e,8.4859,358.6840,36.4340,3.965958,0.1247906,0.37502276,320.2278,06/22.0/2020,2000,g 12.0,4.0
# From MPC100283
121P/Shoemaker-Holt,e,20.1638,94.1394,11.2379,4.586875,0.1003295,0.18489351,249.6005,06/22.0/2020,2000,g  6.5,8.0
# From MPC 75718
122P/de Vico,e,84.6488,79.5135,13.0216,17.63330,0.0133108,0.96228367,120.3877,06/22.0/2020,2000,g  7.5,5.2
# From MPC114608
123P/West-Hartley,e,15.3409,46.4626,103.2484,3.864251,0.1297496,0.44875897,65.1945,06/22.0/2020,2000,g  4.0,10.0
# From MPEC 2020-L06
124P/Mrkos,e,31.5131,0.3710,183.8581,3.317822,0.1630889,0.50343034,9.1502,06/22.0/2020,2000,g 13.5,2.8
# From MPEC 2015-M77
125P/Spacewatch,e,9.9872,153.1626,87.2162,3.124952,0.1784182,0.51313589,118.4991,06/22.0/2020,2000,g  9.0,4.0
# From MPC 66205
126P/IRAS,e,45.8490,357.8461,356.4970,5.642322,0.0735389,0.69598723,278.4777,06/22.0/2020,2000,g  9.0,4.0
# From MPC 84321
127P/Holt-Olmstead,e,14.2984,13.6480,6.5417,3.449554,0.1538366,0.35980780,239.9448,06/22.0/2020,2000,g 11.0,6.0
# From MPC 89014
128P/Shoemaker-Holt,e,4.3658,214.2927,210.3871,4.494201,0.1034488,0.32035546,130.3026,06/22.0/2020,2000,g  8.5,4.0
# From MPEC 2019-TG9
129P/Shoemaker-Levy,e,3.4431,184.8917,308.2008,4.280903,0.1112759,0.08389621,260.1771,06/22.0/2020,2000,g 11.0,4.0
# From MPC 78188
130P/McNaught-Hughes,e,6.0641,70.2476,245.9555,3.383796,0.1583426,0.46129815,139.6299,06/22.0/2020,2000,g 10.0,6.0
# From MPC102101
131P/Mueller,e,7.3533,214.1772,179.0416,3.681502,0.1395297,0.34358163,71.8379,06/22.0/2020,2000,g 11.0,4.0
# From MPEC 2020-HN5
132P/Helin-Roman-Alu,e,5.3783,174.1371,216.3915,3.882955,0.1288132,0.56549454,294.4156,06/22.0/2020,2000,g 11.0,6.0
# From MPC 94676
133P/Elst-Pizarro,e,1.3891,160.1267,131.6878,3.163496,0.1751674,0.15721345,112.0255,06/22.0/2020,2000,g 15.4,2.0
# From MPC 89012
134P/Kowal-Vavrova,e,4.3444,202.0826,18.8687,6.257278,0.0629689,0.58686047,140.0425,06/22.0/2020,2000,g 11.5,4.0
# From MPEC 2015-E14
135P/Shoemaker-Levy,e,6.0614,213.0499,22.2446,3.804252,0.1328312,0.29555706,273.1297,06/22.0/2020,2000,g  9.0,4.0
# From MPC101100
136P/Mueller,e,9.4236,137.4439,224.8908,4.195541,0.1146891,0.29212871,170.0594,06/22.0/2020,2000,g 11.0,4.0
# From MPEC 2020-HN5
137P/Shoemaker-Levy,e,4.8534,233.0677,141.0053,4.520347,0.1025525,0.57319469,57.0759,06/22.0/2020,2000,g 11.0,4.0
# From MPEC 2016-U66
138P/Shoemaker-Levy,e,10.0909,309.3314,95.5808,3.623312,0.1429044,0.53021367,59.4857,06/22.0/2020,2000,g 15.0,6.0
# From MPEC 2020-HN5
139P/Vaisala-Oterma,e,2.3333,242.1991,165.7934,4.524924,0.1023970,0.24630087,94.7701,06/22.0/2020,2000,g  9.5,4.0
# From MPEC 2015-E14
140P/Bowell-Skiff,e,3.8272,343.3212,172.9272,6.436586,0.0603560,0.69114047,107.5070,06/22.0/2020,2000,g 11.5,6.0
# From MPC105242
141P/Machholz,e,13.9476,241.8583,153.5357,3.056615,0.1844348,0.73570846,327.4661,06/22.0/2020,2000,g 12.0,12.0
# From MPC 95735
141P-H/Machholz,e,12.8431,246.0900,149.4500,3.008012,0.1889230,0.74682218,359.9270,08/24.0/2015,2000,g 18.5,4.0
# From MPC 71683
142P/Ge-Wang,e,12.2386,176.0258,173.9863,5.006879,0.0879738,0.49845791,331.4151,06/22.0/2020,2000,g  9.0,4.0
# From MPEC 2020-HN5
143P/Kowal-Mrkos,e,4.6970,245.2719,320.5072,4.286829,0.1110452,0.41057730,86.3906,06/22.0/2020,2000,g 13.5,2.0
# From MPC104795
144P/Kushida,e,3.9921,243.9871,215.8145,3.809204,0.1325723,0.63927941,185.9373,06/22.0/2020,2000,g  8.5,8.0
# From MPC108598
145P/Shoemaker-Levy,e,11.2657,26.7906,10.2666,4.140302,0.1169920,0.54088056,119.9396,06/22.0/2020,2000,g 13.5,4.0
# From MPC100284
146P/Shoemaker-LINEAR,e,23.0819,53.4261,316.9090,4.033572,0.1216660,0.64650062,176.7527,06/22.0/2020,2000,g 15.0,4.0
# From MPC 75720
147P/Kushida-Muramatsu,e,2.3689,93.3366,351.4135,3.938155,0.1261145,0.24536226,201.8739,06/22.0/2020,2000,g 14.0,4.0
# From MPEC 2014-R70
148P/Anderson-LINEAR,e,3.6790,89.6298,6.7747,3.649750,0.1413544,0.54729164,257.9566,06/22.0/2020,2000,g  9.0,4.0
# From MPC 75720
149P/Mueller,e,29.8018,145.1433,44.0611,4.326128,0.1095355,0.39091205,53.6936,06/22.0/2020,2000,g  8.0,8.0
# From MPC 75720
150P/LONEOS,e,18.5075,272.4038,245.5797,3.880168,0.1289521,0.54652661,184.3222,06/22.0/2020,2000,g 13.5,4.0
# From MPEC 2015-Q71
151P/Helin,e,4.7267,143.1489,216.0507,5.764841,0.0712071,0.57292692,122.3274,06/22.0/2020,2000,g 10.0,6.0
# From MPC 79346
152P/Helin-Lawrence,e,9.8798,91.8695,163.8113,4.481238,0.1038980,0.30914665,300.7711,06/22.0/2020,2000,g 11.5,4.0
# From MPC 46101
153P/Ikeya-Zhang,e,27.7080,93.0474,35.2141,50.89065,0.0027149,0.98965337,0.0000,03/10.6962/2002,2000,g  9.0,4.0
# From MPC 87068
154P/Brewington,e,17.6295,343.0144,47.8493,4.803883,0.0936085,0.67510908,223.9014,06/22.0/2020,2000,g  2.5,12.0
# From MPC118098
155P/Shoemaker,e,6.3959,97.1979,14.6569,6.585832,0.0583160,0.72641663,12.8298,06/22.0/2020,2000,g 10.0,4.8
# From MPC105242
156P/Russell-LINEAR,e,17.2624,35.3750,0.4094,3.460682,0.1530952,0.61478642,337.2111,06/22.0/2020,2000,g 15.5,2.0
# From MPC104795
157P/Tritton,e,12.9088,287.9313,155.8337,3.507652,0.1500304,0.57712231,240.4595,06/22.0/2020,2000,g 10.0,4.0
# From MPEC 2016-K18
